<?xml version="1.0" encoding="UTF-8"?>
<ndm xmlns:xsi="http://www.w3.org/2001/XMLSchema-instance" xsi:noNamespaceSchemaLocation="https://sanaregistry.org/r/ndmxml_unqualified/ndmxml-2.0.0-master-2.0.xsd">
<omm id="CCSDS_OMM_VERS" version="2.0">
<header><CREATION_DATE/><ORIGINATOR/></header><body><segment><metadata><OBJECT_NAME>ONEWEB-0019</OBJECT_NAME><OBJECT_ID>2020-020AB</OBJECT_ID><CENTER_NAME>EARTH</CENTER_NAME><REF_FRAME>TEME</REF_FRAME><TIME_SYSTEM>UTC</TIME_SYSTEM><MEAN_ELEMENT_THEORY>SGP4</MEAN_ELEMENT_THEORY></metadata><data><meanElements><EPOCH>2024-08-22T19:46:56.140032</EPOCH><MEAN_MOTION>13.11418921</MEAN_MOTION><ECCENTRICITY>.0002035</ECCENTRICITY><INCLINATION>87.9002</INCLINATION><RA_OF_ASC_NODE>153.1463</RA_OF_ASC_NODE><ARG_OF_PERICENTER>80.3843</ARG_OF_PERICENTER><MEAN_ANOMALY>279.7515</MEAN_ANOMALY></meanElements><tleParameters><EPHEMERIS_TYPE>0</EPHEMERIS_TYPE><CLASSIFICATION_TYPE>U</CLASSIFICATION_TYPE><NORAD_CAT_ID>45449</NORAD_CAT_ID><ELEMENT_SET_NO>999</ELEMENT_SET_NO><REV_AT_EPOCH>21559</REV_AT_EPOCH><BSTAR>.69939E-3</BSTAR><MEAN_MOTION_DOT>.261E-5</MEAN_MOTION_DOT><MEAN_MOTION_DDOT>0</MEAN_MOTION_DDOT></tleParameters></data></segment></body></omm>
<omm id="CCSDS_OMM_VERS" version="2.0">
<header><CREATION_DATE/><ORIGINATOR/></header><body><segment><metadata><OBJECT_NAME>ONEWEB-0094</OBJECT_NAME><OBJECT_ID>2020-020AC</OBJECT_ID><CENTER_NAME>EARTH</CENTER_NAME><REF_FRAME>TEME</REF_FRAME><TIME_SYSTEM>UTC</TIME_SYSTEM><MEAN_ELEMENT_THEORY>SGP4</MEAN_ELEMENT_THEORY></metadata><data><meanElements><EPOCH>2024-08-23T04:58:06.848544</EPOCH><MEAN_MOTION>13.17649022</MEAN_MOTION><ECCENTRICITY>.0001849</ECCENTRICITY><INCLINATION>87.9176</INCLINATION><RA_OF_ASC_NODE>137.8814</RA_OF_ASC_NODE><ARG_OF_PERICENTER>72.0527</ARG_OF_PERICENTER><MEAN_ANOMALY>288.0806</MEAN_ANOMALY></meanElements><tleParameters><EPHEMERIS_TYPE>0</EPHEMERIS_TYPE><CLASSIFICATION_TYPE>U</CLASSIFICATION_TYPE><NORAD_CAT_ID>45450</NORAD_CAT_ID><ELEMENT_SET_NO>999</ELEMENT_SET_NO><REV_AT_EPOCH>21900</REV_AT_EPOCH><BSTAR>.24511E-3</BSTAR><MEAN_MOTION_DOT>.108E-5</MEAN_MOTION_DOT><MEAN_MOTION_DDOT>0</MEAN_MOTION_DDOT></tleParameters></data></segment></body></omm>
<omm id="CCSDS_OMM_VERS" version="2.0">
<header><CREATION_DATE/><ORIGINATOR/></header><body><segment><metadata><OBJECT_NAME>ONEWEB-0087</OBJECT_NAME><OBJECT_ID>2020-020AD</OBJECT_ID><CENTER_NAME>EARTH</CENTER_NAME><REF_FRAME>TEME</REF_FRAME><TIME_SYSTEM>UTC</TIME_SYSTEM><MEAN_ELEMENT_THEORY>SGP4</MEAN_ELEMENT_THEORY></metadata><data><meanElements><EPOCH>2024-08-22T20:38:01.208544</EPOCH><MEAN_MOTION>13.11414211</MEAN_MOTION><ECCENTRICITY>.000191</ECCENTRICITY><INCLINATION>87.8990</INCLINATION><RA_OF_ASC_NODE>153.1029</RA_OF_ASC_NODE><ARG_OF_PERICENTER>65.7552</ARG_OF_PERICENTER><MEAN_ANOMALY>294.3776</MEAN_ANOMALY></meanElements><tleParameters><EPHEMERIS_TYPE>0</EPHEMERIS_TYPE><CLASSIFICATION_TYPE>U</CLASSIFICATION_TYPE><NORAD_CAT_ID>45451</NORAD_CAT_ID><ELEMENT_SET_NO>999</ELEMENT_SET_NO><REV_AT_EPOCH>21564</REV_AT_EPOCH><BSTAR>.70203E-4</BSTAR><MEAN_MOTION_DOT>.38E-6</MEAN_MOTION_DOT><MEAN_MOTION_DDOT>0</MEAN_MOTION_DDOT></tleParameters></data></segment></body></omm>
<omm id="CCSDS_OMM_VERS" version="2.0">
<header><CREATION_DATE/><ORIGINATOR/></header><body><segment><metadata><OBJECT_NAME>ONEWEB-0082</OBJECT_NAME><OBJECT_ID>2020-020AE</OBJECT_ID><CENTER_NAME>EARTH</CENTER_NAME><REF_FRAME>TEME</REF_FRAME><TIME_SYSTEM>UTC</TIME_SYSTEM><MEAN_ELEMENT_THEORY>SGP4</MEAN_ELEMENT_THEORY></metadata><data><meanElements><EPOCH>2024-08-23T11:12:16.173504</EPOCH><MEAN_MOTION>13.11414320</MEAN_MOTION><ECCENTRICITY>.0001859</ECCENTRICITY><INCLINATION>87.8994</INCLINATION><RA_OF_ASC_NODE>152.9897</RA_OF_ASC_NODE><ARG_OF_PERICENTER>75.9459</ARG_OF_PERICENTER><MEAN_ANOMALY>284.1876</MEAN_ANOMALY></meanElements><tleParameters><EPHEMERIS_TYPE>0</EPHEMERIS_TYPE><CLASSIFICATION_TYPE>U</CLASSIFICATION_TYPE><NORAD_CAT_ID>45452</NORAD_CAT_ID><ELEMENT_SET_NO>999</ELEMENT_SET_NO><REV_AT_EPOCH>21582</REV_AT_EPOCH><BSTAR>.7824E-3</BSTAR><MEAN_MOTION_DOT>.29E-5</MEAN_MOTION_DOT><MEAN_MOTION_DDOT>0</MEAN_MOTION_DDOT></tleParameters></data></segment></body></omm>
<omm id="CCSDS_OMM_VERS" version="2.0">
<header><CREATION_DATE/><ORIGINATOR/></header><body><segment><metadata><OBJECT_NAME>ONEWEB-0050</OBJECT_NAME><OBJECT_ID>2020-020AF</OBJECT_ID><CENTER_NAME>EARTH</CENTER_NAME><REF_FRAME>TEME</REF_FRAME><TIME_SYSTEM>UTC</TIME_SYSTEM><MEAN_ELEMENT_THEORY>SGP4</MEAN_ELEMENT_THEORY></metadata><data><meanElements><EPOCH>2024-08-22T21:15:15.974784</EPOCH><MEAN_MOTION>14.90417449</MEAN_MOTION><ECCENTRICITY>.0003083</ECCENTRICITY><INCLINATION>88.0072</INCLINATION><RA_OF_ASC_NODE>11.2399</RA_OF_ASC_NODE><ARG_OF_PERICENTER>157.0093</ARG_OF_PERICENTER><MEAN_ANOMALY>203.1274</MEAN_ANOMALY></meanElements><tleParameters><EPHEMERIS_TYPE>0</EPHEMERIS_TYPE><CLASSIFICATION_TYPE>U</CLASSIFICATION_TYPE><NORAD_CAT_ID>45453</NORAD_CAT_ID><ELEMENT_SET_NO>999</ELEMENT_SET_NO><REV_AT_EPOCH>24155</REV_AT_EPOCH><BSTAR>.85495E-3</BSTAR><MEAN_MOTION_DOT>.8353E-4</MEAN_MOTION_DOT><MEAN_MOTION_DDOT>0</MEAN_MOTION_DDOT></tleParameters></data></segment></body></omm>
<omm id="CCSDS_OMM_VERS" version="2.0">
<header><CREATION_DATE/><ORIGINATOR/></header><body><segment><metadata><OBJECT_NAME>ONEWEB-0034</OBJECT_NAME><OBJECT_ID>2020-020AG</OBJECT_ID><CENTER_NAME>EARTH</CENTER_NAME><REF_FRAME>TEME</REF_FRAME><TIME_SYSTEM>UTC</TIME_SYSTEM><MEAN_ELEMENT_THEORY>SGP4</MEAN_ELEMENT_THEORY></metadata><data><meanElements><EPOCH>2024-08-22T19:15:11.155680</EPOCH><MEAN_MOTION>13.11415102</MEAN_MOTION><ECCENTRICITY>.000193</ECCENTRICITY><INCLINATION>87.8997</INCLINATION><RA_OF_ASC_NODE>153.1400</RA_OF_ASC_NODE><ARG_OF_PERICENTER>74.2007</ARG_OF_PERICENTER><MEAN_ANOMALY>285.9333</MEAN_ANOMALY></meanElements><tleParameters><EPHEMERIS_TYPE>0</EPHEMERIS_TYPE><CLASSIFICATION_TYPE>U</CLASSIFICATION_TYPE><NORAD_CAT_ID>45454</NORAD_CAT_ID><ELEMENT_SET_NO>999</ELEMENT_SET_NO><REV_AT_EPOCH>21565</REV_AT_EPOCH><BSTAR>-.13522E-2</BSTAR><MEAN_MOTION_DOT>-.467E-5</MEAN_MOTION_DOT><MEAN_MOTION_DDOT>0</MEAN_MOTION_DDOT></tleParameters></data></segment></body></omm>
<omm id="CCSDS_OMM_VERS" version="2.0">
<header><CREATION_DATE/><ORIGINATOR/></header><body><segment><metadata><OBJECT_NAME>ONEWEB-0060</OBJECT_NAME><OBJECT_ID>2020-020AH</OBJECT_ID><CENTER_NAME>EARTH</CENTER_NAME><REF_FRAME>TEME</REF_FRAME><TIME_SYSTEM>UTC</TIME_SYSTEM><MEAN_ELEMENT_THEORY>SGP4</MEAN_ELEMENT_THEORY></metadata><data><meanElements><EPOCH>2024-08-23T12:45:15.694560</EPOCH><MEAN_MOTION>13.11416566</MEAN_MOTION><ECCENTRICITY>.000214</ECCENTRICITY><INCLINATION>87.9000</INCLINATION><RA_OF_ASC_NODE>153.0138</RA_OF_ASC_NODE><ARG_OF_PERICENTER>74.1994</ARG_OF_PERICENTER><MEAN_ANOMALY>285.9370</MEAN_ANOMALY></meanElements><tleParameters><EPHEMERIS_TYPE>0</EPHEMERIS_TYPE><CLASSIFICATION_TYPE>U</CLASSIFICATION_TYPE><NORAD_CAT_ID>45455</NORAD_CAT_ID><ELEMENT_SET_NO>999</ELEMENT_SET_NO><REV_AT_EPOCH>21570</REV_AT_EPOCH><BSTAR>.16225E-2</BSTAR><MEAN_MOTION_DOT>.588E-5</MEAN_MOTION_DOT><MEAN_MOTION_DDOT>0</MEAN_MOTION_DDOT></tleParameters></data></segment></body></omm>
<omm id="CCSDS_OMM_VERS" version="2.0">
<header><CREATION_DATE/><ORIGINATOR/></header><body><segment><metadata><OBJECT_NAME>ONEWEB-0086</OBJECT_NAME><OBJECT_ID>2020-020AJ</OBJECT_ID><CENTER_NAME>EARTH</CENTER_NAME><REF_FRAME>TEME</REF_FRAME><TIME_SYSTEM>UTC</TIME_SYSTEM><MEAN_ELEMENT_THEORY>SGP4</MEAN_ELEMENT_THEORY></metadata><data><meanElements><EPOCH>2024-08-23T12:20:37.162464</EPOCH><MEAN_MOTION>13.11419983</MEAN_MOTION><ECCENTRICITY>.0001747</ECCENTRICITY><INCLINATION>87.8996</INCLINATION><RA_OF_ASC_NODE>153.0001</RA_OF_ASC_NODE><ARG_OF_PERICENTER>63.2669</ARG_OF_PERICENTER><MEAN_ANOMALY>296.8638</MEAN_ANOMALY></meanElements><tleParameters><EPHEMERIS_TYPE>0</EPHEMERIS_TYPE><CLASSIFICATION_TYPE>U</CLASSIFICATION_TYPE><NORAD_CAT_ID>45456</NORAD_CAT_ID><ELEMENT_SET_NO>999</ELEMENT_SET_NO><REV_AT_EPOCH>21575</REV_AT_EPOCH><BSTAR>.29872E-3</BSTAR><MEAN_MOTION_DOT>.119E-5</MEAN_MOTION_DOT><MEAN_MOTION_DDOT>0</MEAN_MOTION_DDOT></tleParameters></data></segment></body></omm>
<omm id="CCSDS_OMM_VERS" version="2.0">
<header><CREATION_DATE/><ORIGINATOR/></header><body><segment><metadata><OBJECT_NAME>ONEWEB-0088</OBJECT_NAME><OBJECT_ID>2020-020AK</OBJECT_ID><CENTER_NAME>EARTH</CENTER_NAME><REF_FRAME>TEME</REF_FRAME><TIME_SYSTEM>UTC</TIME_SYSTEM><MEAN_ELEMENT_THEORY>SGP4</MEAN_ELEMENT_THEORY></metadata><data><meanElements><EPOCH>2024-08-23T11:48:52.569504</EPOCH><MEAN_MOTION>13.11416310</MEAN_MOTION><ECCENTRICITY>.0001946</ECCENTRICITY><INCLINATION>87.8992</INCLINATION><RA_OF_ASC_NODE>152.9667</RA_OF_ASC_NODE><ARG_OF_PERICENTER>71.4312</ARG_OF_PERICENTER><MEAN_ANOMALY>288.7028</MEAN_ANOMALY></meanElements><tleParameters><EPHEMERIS_TYPE>0</EPHEMERIS_TYPE><CLASSIFICATION_TYPE>U</CLASSIFICATION_TYPE><NORAD_CAT_ID>45457</NORAD_CAT_ID><ELEMENT_SET_NO>999</ELEMENT_SET_NO><REV_AT_EPOCH>21569</REV_AT_EPOCH><BSTAR>-.20751E-2</BSTAR><MEAN_MOTION_DOT>-.723E-5</MEAN_MOTION_DOT><MEAN_MOTION_DDOT>0</MEAN_MOTION_DDOT></tleParameters></data></segment></body></omm>

</ndm>
